[Satellite]
VERSION=1.1
NAME=COSMOS 2565
NICKNAME=COSMOS 2565
TLE1=1 54381U 22163A   22342.61315615 -.00000054  00000+0  15188-4 0  9992
TLE2=2 54381  67.1535 354.2603 0006922 268.6937  91.3354 13.96672156  1106
STATUS=0
